{"type": "FeatureCollection", "features": [ {"type": "Feature", "properties": {"norad_id": 34823, "name": "COSMOS 2251 DEB", "group": "cosmos-2251-debris", "lat": 11.048828497180708, "lon": -89.69836986775361, "alt_km": 602.3579313492046, "timestamp": "2025-12-17T09:00:17.543109+00:00", "meta": {"OBJECT_NAME": "COSMOS 2251 DEB", "OBJECT_ID": "1993-036ABN", "EPOCH": "2025-12-16T17:22:50.423808", "MEAN_MOTION": 14.5495788, "ECCENTRICITY": 0.01544082, "INCLINATION": 74.0415, "RA_OF_ASC_NODE": 94.7366, "ARG_OF_PERICENTER": 178.5296, "MEAN_ANOMALY": 181.6356, "EPHEMERIS_TYPE": 0, "CLASSIFICATION_TYPE": "U", "NORAD_CAT_ID": 34823, "ELEMENT_SET_NO": 999, "REV_AT_EPOCH": 88439, "BSTAR": 0.00052060412, "MEAN_MOTION_DOT": 2.597e-05, "MEAN_MOTION_DDOT": 0}, "tle": {"line1": "1 34823U 93036ABN 25350.72419472  .00002597  00000+0  52060-3 0  9990", "line2": "2 34823  74.0415  94.7366 0154408 178.5296 181.6356 14.54957880884391"}}, "geometry": {"type": "Point", "coordinates": [-89.69836986775361, 11.048828497180708]}}, {"type": "Feature", "properties": {"norad_id": 34845, "name": "COSMOS 2251 DEB", "group": "cosmos-2251-debris", "lat": -13.945340098747081, "lon": 135.61782841014178, "alt_km": 732.2449658995301, "timestamp": "2025-12-17T09:00:17.543119+00:00", "meta": {"OBJECT_NAME": "COSMOS 2251 DEB", "OBJECT_ID": "1993-036ABP", "EPOCH": "2025-12-16T16:27:57.312000", "MEAN_MOTION": 14.45867207, "ECCENTRICITY": 0.0022475, "INCLINATION": 74.024, "RA_OF_ASC_NODE": 140.983, "ARG_OF_PERICENTER": 301.2672, "MEAN_ANOMALY": 58.6284, "EPHEMERIS_TYPE": 0, "CLASSIFICATION_TYPE": "U", "NORAD_CAT_ID": 34845, "ELEMENT_SET_NO": 999, "REV_AT_EPOCH": 87523, "BSTAR": 0.00027004577, "MEAN_MOTION_DOT": 9.35e-06, "MEAN_MOTION_DDOT": 0}, "tle": {"line1": "1 34845U 93036ABP 25350.68608000  .00000935  00000+0  27005-3 0  9991", "line2": "2 34845  74.0240 140.9830 0022475 301.2672  58.6284 14.45867207875231"}}, "geometry": {"type": "Point", "coordinates": [135.61782841014178, -13.945340098747081]}}, {"type": "Feature", "properties": {"norad_id": 34846, "name": "COSMOS 2251 DEB", "group": "cosmos-2251-debris", "lat": -49.91278018323484, "lon": -126.7822184586317, "alt_km": 722.9678069250904, "timestamp": "2025-12-17T09:00:17.543129+00:00", "meta": {"OBJECT_NAME": "COSMOS 2251 DEB", "OBJECT_ID": "1993-036ABQ", "EPOCH": "2025-12-16T18:18:57.193344", "MEAN_MOTION": 14.47239601, "ECCENTRICITY": 0.00261655, "INCLINATION": 74.0311, "RA_OF_ASC_NODE": 254.2509, "ARG_OF_PERICENTER": 320.1198, "MEAN_ANOMALY": 39.8037, "EPHEMERIS_TYPE": 0, "CLASSIFICATION_TYPE": "U", "NORAD_CAT_ID": 34846, "ELEMENT_SET_NO": 999, "REV_AT_EPOCH": 87462, "BSTAR": 0.00057442019, "MEAN_MOTION_DOT": 2.082e-05, "MEAN_MOTION_DDOT": 0}, "tle": {"line1": "1 34846U 93036ABQ 25350.76316196  .00002082  00000+0  57442-3 0  9996", "line2": "2 34846  74.0311 254.2509 0026165 320.1198  39.8037 14.47239601874628"}}, "geometry": {"type": "Point", "coordinates": [-126.7822184586317, -49.91278018323484]}}, {"type": "Feature", "properties": {"norad_id": 34852, "name": "COSMOS 2251 DEB", "group": "cosmos-2251-debris", "lat": -22.10546630291511, "lon": 81.12571146396547, "alt_km": 783.8419005863589, "timestamp": "2025-12-17T09:00:17.543139+00:00", "meta": {"OBJECT_NAME": "COSMOS 2251 DEB", "OBJECT_ID": "1993-036ABW", "EPOCH": "2025-12-16T01:59:18.966624", "MEAN_MOTION": 14.3700768, "ECCENTRICITY": 0.00163324, "INCLINATION": 74.0328, "RA_OF_ASC_NODE": 256.8235, "ARG_OF_PERICENTER": 359.1989, "MEAN_ANOMALY": 0.9135, "EPHEMERIS_TYPE": 0, "CLASSIFICATION_TYPE": "U", "NORAD_CAT_ID": 34852, "ELEMENT_SET_NO": 999, "REV_AT_EPOCH": 87582, "BSTAR": 0.00011051411, "MEAN_MOTION_DOT": 3.02e-06, "MEAN_MOTION_DDOT": 0}, "tle": {"line1": "1 34852U 93036ABW 25350.08285841  .00000302  00000+0  11051-3 0  9999", "line2": "2 34852  74.0328 256.8235 0016332 359.1989   0.9135 14.37007680875822"}}, "geometry": {"type": "Point", "coordinates": [81.12571146396547, -22.10546630291511]}}, {"type": "Feature", "properties": {"norad_id": 34854, "name": "COSMOS 2251 DEB", "group": "cosmos-2251-debris", "lat": 45.50490659491998, "lon": 166.4441403759648, "alt_km": 674.7737752825878, "timestamp": "2025-12-17T09:00:17.543150+00:00", "meta": {"OBJECT_NAME": "COSMOS 2251 DEB", "OBJECT_ID": "1993-036ABY", "EPOCH": "2025-12-15T17:45:50.311296", "MEAN_MOTION": 14.76656012, "ECCENTRICITY": 0.00661077, "INCLINATION": 74.0282, "RA_OF_ASC_NODE": 152.7005, "ARG_OF_PERICENTER": 263.7765, "MEAN_ANOMALY": 95.5876, "EPHEMERIS_TYPE": 0, "CLASSIFICATION_TYPE": "U", "NORAD_CAT_ID": 34854, "ELEMENT_SET_NO": 999, "REV_AT_EPOCH": 71926, "BSTAR": 0.00049862393, "MEAN_MOTION_DOT": 3.579e-05, "MEAN_MOTION_DDOT": 0}, "tle": {"line1": "1 34854U 93036ABY 25349.74016564  .00003579  00000+0  49862-3 0  9996", "line2": "2 34854  74.0282 152.7005 0066107 263.7765  95.5876 14.76656012719268"}}, "geometry": {"type": "Point", "coordinates": [166.4441403759648, 45.50490659491998]}}, {"type": "Feature", "properties": {"norad_id": 34856, "name": "COSMOS 2251 DEB", "group": "cosmos-2251-debris", "lat": -67.66169868499787, "lon": -60.377868706888854, "alt_km": 537.4984765572472, "timestamp": "2025-12-17T09:00:17.543160+00:00", "meta": {"OBJECT_NAME": "COSMOS 2251 DEB", "OBJECT_ID": "1993-036ACA", "EPOCH": "2025-12-15T08:23:09.320352", "MEAN_MOTION": 15.0621822, "ECCENTRICITY": 0.00326007, "INCLINATION": 73.9961, "RA_OF_ASC_NODE": 79.4818, "ARG_OF_PERICENTER": 217.4103, "MEAN_ANOMALY": 216.3401, "EPHEMERIS_TYPE": 0, "CLASSIFICATION_TYPE": "U", "NORAD_CAT_ID": 34856, "ELEMENT_SET_NO": 999, "REV_AT_EPOCH": 89151, "BSTAR": 0.0012135652, "MEAN_MOTION_DOT": 0.00018014, "MEAN_MOTION_DDOT": 0}, "tle": {"line1": "1 34856U 93036ACA 25349.34941343  .00018014  00000+0  12136-2 0  9999", "line2": "2 34856  73.9961  79.4818 0032600 217.4103 216.3401 15.06218220891517"}}, "geometry": {"type": "Point", "coordinates": [-60.377868706888854, -67.66169868499787]}}, {"type": "Feature", "properties": {"norad_id": 34857, "name": "COSMOS 2251 DEB", "group": "cosmos-2251-debris", "lat": -14.753222441647338, "lon": -77.68357551229441, "alt_km": 659.2188189262542, "timestamp": "2025-12-17T09:00:17.543170+00:00", "meta": {"OBJECT_NAME": "COSMOS 2251 DEB", "OBJECT_ID": "1993-036ACB", "EPOCH": "2025-12-16T17:52:33.248928", "MEAN_MOTION": 14.58934437, "ECCENTRICITY": 0.00657144, "INCLINATION": 74.0159, "RA_OF_ASC_NODE": 99.1894, "ARG_OF_PERICENTER": 222.9586, "MEAN_ANOMALY": 263.1461, "EPHEMERIS_TYPE": 0, "CLASSIFICATION_TYPE": "U", "NORAD_CAT_ID": 34857, "ELEMENT_SET_NO": 999, "REV_AT_EPOCH": 87959, "BSTAR": 0.00083210289, "MEAN_MOTION_DOT": 3.991e-05, "MEAN_MOTION_DDOT": 0}, "tle": {"line1": "1 34857U 93036ACB 25350.74482927  .00003991  00000+0  83210-3 0  9994", "line2": "2 34857  74.0159  99.1894 0065714 222.9586 263.1461 14.58934437879591"}}, "geometry": {"type": "Point", "coordinates": [-77.68357551229441, -14.753222441647338]}}, {"type": "Feature", "properties": {"norad_id": 34859, "name": "COSMOS 2251 DEB", "group": "cosmos-2251-debris", "lat": 5.094540114608338, "lon": -28.525076541222248, "alt_km": 520.1555208925374, "timestamp": "2025-12-17T09:00:17.543180+00:00", "meta": {"OBJECT_NAME": "COSMOS 2251 DEB", "OBJECT_ID": "1993-036ACD", "EPOCH": "2025-12-16T09:46:42.737376", "MEAN_MOTION": 15.15357258, "ECCENTRICITY": 0.00019857, "INCLINATION": 74.0281, "RA_OF_ASC_NODE": 332.0261, "ARG_OF_PERICENTER": 6.7408, "MEAN_ANOMALY": 121.3133, "EPHEMERIS_TYPE": 0, "CLASSIFICATION_TYPE": "U", "NORAD_CAT_ID": 34859, "ELEMENT_SET_NO": 999, "REV_AT_EPOCH": 88414, "BSTAR": 0.0033529222, "MEAN_MOTION_DOT": 0.00063788, "MEAN_MOTION_DDOT": 0}, "tle": {"line1": "1 34859U 93036ACD 25350.40743909  .00063788  00000+0  33529-2 0  9996", "line2": "2 34859  74.0281 332.0261 0001985   6.7408 121.3133 15.15357258884149"}}, "geometry": {"type": "Point", "coordinates": [-28.525076541222248, 5.094540114608338]}}, {"type": "Feature", "properties": {"norad_id": 34861, "name": "COSMOS 2251 DEB", "group": "cosmos-2251-debris", "lat": 60.584671828722826, "lon": 71.93012570205697, "alt_km": 547.5393782664823, "timestamp": "2025-12-17T09:00:17.543190+00:00", "meta": {"OBJECT_NAME": "COSMOS 2251 DEB", "OBJECT_ID": "1993-036ACF", "EPOCH": "2025-12-16T04:05:31.084224", "MEAN_MOTION": 15.0279155, "ECCENTRICITY": 0.00073615, "INCLINATION": 74.0193, "RA_OF_ASC_NODE": 43.8416, "ARG_OF_PERICENTER": 36.4182, "MEAN_ANOMALY": 353.7173, "EPHEMERIS_TYPE": 0, "CLASSIFICATION_TYPE": "U", "NORAD_CAT_ID": 34861, "ELEMENT_SET_NO": 999, "REV_AT_EPOCH": 88144, "BSTAR": 0.0016459409, "MEAN_MOTION_DOT": 0.00022073, "MEAN_MOTION_DDOT": 0}, "tle": {"line1": "1 34861U 93036ACF 25350.17049866  .00022073  00000+0  16459-2 0  9999", "line2": "2 34861  74.0193  43.8416 0007361  36.4182 353.7173 15.02791550881444"}}, "geometry": {"type": "Point", "coordinates": [71.93012570205697, 60.584671828722826]}}, {"type": "Feature", "properties": {"norad_id": 34874, "name": "COSMOS 2251 DEB", "group": "cosmos-2251-debris", "lat": -10.52867781535038, "lon": 62.20408254929844, "alt_km": 780.6901632510044, "timestamp": "2025-12-17T09:00:17.543200+00:00", "meta": {"OBJECT_NAME": "COSMOS 2251 DEB", "OBJECT_ID": "1993-036ACM", "EPOCH": "2025-12-15T15:57:33.247296", "MEAN_MOTION": 14.36325201, "ECCENTRICITY": 0.00508248, "INCLINATION": 74.0399, "RA_OF_ASC_NODE": 68.3924, "ARG_OF_PERICENTER": 92.7738, "MEAN_ANOMALY": 57.2671, "EPHEMERIS_TYPE": 0, "CLASSIFICATION_TYPE": "U", "NORAD_CAT_ID": 34874, "ELEMENT_SET_NO": 999, "REV_AT_EPOCH": 87086, "BSTAR": 0.00056877807, "MEAN_MOTION_DOT": 1.663e-05, "MEAN_MOTION_DDOT": 0}, "tle": {"line1": "1 34874U 93036ACM 25349.66496814  .00001663  00000+0  56878-3 0  9996", "line2": "2 34874  74.0399  68.3924 0050824  92.7738  57.2671 14.36325201870861"}}, "geometry": {"type": "Point", "coordinates": [62.20408254929844, -10.52867781535038]}}]}